{
"type": "FeatureCollection",
"name": "henne_tract_geometries",
"crs": { "type": "name", "properties": { "name": "urn:ogc:def:crs:EPSG::26915" } },
"features": [
{ "type": "Feature", "properties": { "census_tract": "27053022802" }, "geometry": { "type": "Point", "coordinates": [ 472724.398436986899469, 4977656.681317173875868 ] } },
{ "type": "Feature", "properties": { "census_tract": "27053023502" }, "geometry": { "type": "Point", "coordinates": [ 471477.632925015466753, 4972553.613689570687711 ] } },
{ "type": "Feature", "properties": { "census_tract": "27053023600" }, "geometry": { "type": "Point", "coordinates": [ 473795.212712061358616, 4973658.822810322977602 ] } },
{ "type": "Feature", "properties": { "census_tract": "27053000300" }, "geometry": { "type": "Point", "coordinates": [ 475468.87131861114176, 4986580.929856798611581 ] } },
{ "type": "Feature", "properties": { "census_tract": "27053011800" }, "geometry": { "type": "Point", "coordinates": [ 481585.385197644121945, 4972120.525644173845649 ] } },
{ "type": "Feature", "properties": { "census_tract": "27053023501" }, "geometry": { "type": "Point", "coordinates": [ 470767.633376221521758, 4973548.104301881976426 ] } },
{ "type": "Feature", "properties": { "census_tract": "27053107400" }, "geometry": { "type": "Point", "coordinates": [ 482382.985062140971422, 4977272.863374912180007 ] } },
{ "type": "Feature", "properties": { "census_tract": "27053023100" }, "geometry": { "type": "Point", "coordinates": [ 473506.960444428783376, 4974056.061566979624331 ] } },
{ "type": "Feature", "properties": { "census_tract": "27053022901" }, "geometry": { "type": "Point", "coordinates": [ 473663.743174705537967, 4975943.716509212739766 ] } },
{ "type": "Feature", "properties": { "census_tract": "27053023801" }, "geometry": { "type": "Point", "coordinates": [ 473601.510231638560072, 4971588.825898936018348 ] } },
{ "type": "Feature", "properties": { "census_tract": "27053022700" }, "geometry": { "type": "Point", "coordinates": [ 472348.639281625393778, 4977722.144856840372086 ] } },
{ "type": "Feature", "properties": { "census_tract": "27053023802" }, "geometry": { "type": "Point", "coordinates": [ 474547.454458448628429, 4972333.633505154401064 ] } },
{ "type": "Feature", "properties": { "census_tract": "27053023700" }, "geometry": { "type": "Point", "coordinates": [ 472138.577956543769687, 4972199.50105610769242 ] } },
{ "type": "Feature", "properties": { "census_tract": "27053022902" }, "geometry": { "type": "Point", "coordinates": [ 472539.344138878281228, 4974750.594166847877204 ] } },
{ "type": "Feature", "properties": { "census_tract": "27053022000" }, "geometry": { "type": "Point", "coordinates": [ 473151.127627900801599, 4979113.423291150480509 ] } },
{ "type": "Feature", "properties": { "census_tract": "27053024006" }, "geometry": { "type": "Point", "coordinates": [ 472583.489812434068881, 4970175.717833484522998 ] } },
{ "type": "Feature", "properties": { "census_tract": "27053023901" }, "geometry": { "type": "Point", "coordinates": [ 472320.782048044144176, 4970408.819850666448474 ] } },
{ "type": "Feature", "properties": { "census_tract": "27053022400" }, "geometry": { "type": "Point", "coordinates": [ 470718.453227286750916, 4977535.895042348653078 ] } },
{ "type": "Feature", "properties": { "census_tract": "27053023000" }, "geometry": { "type": "Point", "coordinates": [ 472188.64290318347048, 4974208.136955165304244 ] } },
{ "type": "Feature", "properties": { "census_tract": "27053024400" }, "geometry": { "type": "Point", "coordinates": [ 477310.485542564827483, 4969986.937336958944798 ] } },
{ "type": "Feature", "properties": { "census_tract": "27053024500" }, "geometry": { "type": "Point", "coordinates": [ 476884.668410666286945, 4969806.955115518532693 ] } },
{ "type": "Feature", "properties": { "census_tract": "27053122500" }, "geometry": { "type": "Point", "coordinates": [ 469964.454856676049531, 4975619.321192117407918 ] } },
{ "type": "Feature", "properties": { "census_tract": "27053024200" }, "geometry": { "type": "Point", "coordinates": [ 476258.884878579643555, 4969511.166257835924625 ] } },
{ "type": "Feature", "properties": { "census_tract": "27053024904" }, "geometry": { "type": "Point", "coordinates": [ 480492.035575186542701, 4969457.415073928423226 ] } },
{ "type": "Feature", "properties": { "census_tract": "27053980000" }, "geometry": { "type": "Point", "coordinates": [ 480551.54118819598807, 4969457.420972948893905 ] } },
{ "type": "Feature", "properties": { "census_tract": "27053024600" }, "geometry": { "type": "Point", "coordinates": [ 477652.931459028506652, 4968080.082753204740584 ] } },
{ "type": "Feature", "properties": { "census_tract": "27053024100" }, "geometry": { "type": "Point", "coordinates": [ 476601.508651268261019, 4970594.735970784910023 ] } },
{ "type": "Feature", "properties": { "census_tract": "27053022200" }, "geometry": { "type": "Point", "coordinates": [ 469694.937116788292769, 4978129.407513330690563 ] } },
{ "type": "Feature", "properties": { "census_tract": "27053026405" }, "geometry": { "type": "Point", "coordinates": [ 467205.122214747534599, 4979905.198047681711614 ] } },
{ "type": "Feature", "properties": { "census_tract": "27053022801" }, "geometry": { "type": "Point", "coordinates": [ 473428.082905029237736, 4977875.126424422487617 ] } },
{ "type": "Feature", "properties": { "census_tract": "27053024700" }, "geometry": { "type": "Point", "coordinates": [ 478501.812863710045349, 4970180.887265191413462 ] } },
{ "type": "Feature", "properties": { "census_tract": "27053122600" }, "geometry": { "type": "Point", "coordinates": [ 470928.82632826193003, 4976840.350757307372987 ] } },
{ "type": "Feature", "properties": { "census_tract": "27053024300" }, "geometry": { "type": "Point", "coordinates": [ 475090.066476397914812, 4968682.114843364804983 ] } },
{ "type": "Feature", "properties": { "census_tract": "27053024801" }, "geometry": { "type": "Point", "coordinates": [ 478750.488200879481155, 4968582.085031292401254 ] } },
{ "type": "Feature", "properties": { "census_tract": "27053025908" }, "geometry": { "type": "Point", "coordinates": [ 471720.180196836707182, 4964901.458014032803476 ] } },
{ "type": "Feature", "properties": { "census_tract": "27053020903" }, "geometry": { "type": "Point", "coordinates": [ 471691.610954564763233, 4986755.67728946916759 ] } },
{ "type": "Feature", "properties": { "census_tract": "27053021400" }, "geometry": { "type": "Point", "coordinates": [ 473776.984758999198675, 4984570.653412560001016 ] } },
{ "type": "Feature", "properties": { "census_tract": "27053021602" }, "geometry": { "type": "Point", "coordinates": [ 471110.750511589809321, 4982584.914191817864776 ] } },
{ "type": "Feature", "properties": { "census_tract": "27053021200" }, "geometry": { "type": "Point", "coordinates": [ 474655.966994562302716, 4987131.165920591913164 ] } },
{ "type": "Feature", "properties": { "census_tract": "27053021300" }, "geometry": { "type": "Point", "coordinates": [ 473733.608739037881605, 4985334.820149569772184 ] } },
{ "type": "Feature", "properties": { "census_tract": "27053125500" }, "geometry": { "type": "Point", "coordinates": [ 477127.555948765191715, 4966190.98229281976819 ] } },
{ "type": "Feature", "properties": { "census_tract": "27053020700" }, "geometry": { "type": "Point", "coordinates": [ 472906.687585756124463, 4987938.339144398458302 ] } },
{ "type": "Feature", "properties": { "census_tract": "27053021800" }, "geometry": { "type": "Point", "coordinates": [ 473814.095373561547603, 4980428.591493054293096 ] } },
{ "type": "Feature", "properties": { "census_tract": "27053020804" }, "geometry": { "type": "Point", "coordinates": [ 470999.014077374653425, 4988042.930231614038348 ] } },
{ "type": "Feature", "properties": { "census_tract": "27053021900" }, "geometry": { "type": "Point", "coordinates": [ 469613.208087033184711, 4979983.904188150539994 ] } },
{ "type": "Feature", "properties": { "census_tract": "27053025401" }, "geometry": { "type": "Point", "coordinates": [ 477974.669110074988566, 4966581.781286362558603 ] } },
{ "type": "Feature", "properties": { "census_tract": "27053025601" }, "geometry": { "type": "Point", "coordinates": [ 476434.401279838639311, 4966324.671652653254569 ] } },
{ "type": "Feature", "properties": { "census_tract": "27053027602" }, "geometry": { "type": "Point", "coordinates": [ 448156.142351063375827, 4975676.932280308566988 ] } },
{ "type": "Feature", "properties": { "census_tract": "27053027101" }, "geometry": { "type": "Point", "coordinates": [ 449283.643385515548289, 4987067.528585760854185 ] } },
{ "type": "Feature", "properties": { "census_tract": "27053021700" }, "geometry": { "type": "Point", "coordinates": [ 473575.329977603396401, 4984623.601571572944522 ] } },
{ "type": "Feature", "properties": { "census_tract": "27053021601" }, "geometry": { "type": "Point", "coordinates": [ 468700.489171870285645, 4982306.847196964547038 ] } },
{ "type": "Feature", "properties": { "census_tract": "27053027601" }, "geometry": { "type": "Point", "coordinates": [ 449259.648589361808263, 4976865.014844608493149 ] } },
{ "type": "Feature", "properties": { "census_tract": "27053027400" }, "geometry": { "type": "Point", "coordinates": [ 459639.205745054816362, 4977877.581738773733377 ] } },
{ "type": "Feature", "properties": { "census_tract": "27053027503" }, "geometry": { "type": "Point", "coordinates": [ 450043.623706908663735, 4972318.456583590246737 ] } },
{ "type": "Feature", "properties": { "census_tract": "27053023202" }, "geometry": { "type": "Point", "coordinates": [ 469759.325763350527268, 4975498.280725786462426 ] } },
{ "type": "Feature", "properties": { "census_tract": "27053011704" }, "geometry": { "type": "Point", "coordinates": [ 479732.418158741726074, 4972239.416655387729406 ] } },
{ "type": "Feature", "properties": { "census_tract": "27053020902" }, "geometry": { "type": "Point", "coordinates": [ 471828.641248055850156, 4986338.306067172437906 ] } },
{ "type": "Feature", "properties": { "census_tract": "27053025905" }, "geometry": { "type": "Point", "coordinates": [ 471316.9035584051162, 4967461.931755052879453 ] } },
{ "type": "Feature", "properties": { "census_tract": "27053020102" }, "geometry": { "type": "Point", "coordinates": [ 482387.557745442376472, 4985422.991175109520555 ] } },
{ "type": "Feature", "properties": { "census_tract": "27053026826" }, "geometry": { "type": "Point", "coordinates": [ 474351.062265955726616, 4999373.754119716584682 ] } },
{ "type": "Feature", "properties": { "census_tract": "27053106500" }, "geometry": { "type": "Point", "coordinates": [ 474997.770033952197991, 4977827.426894206553698 ] } },
{ "type": "Feature", "properties": { "census_tract": "27053012102" }, "geometry": { "type": "Point", "coordinates": [ 482971.58665414142888, 4971394.672162187285721 ] } },
{ "type": "Feature", "properties": { "census_tract": "27053104002" }, "geometry": { "type": "Point", "coordinates": [ 483590.63936440134421, 4982592.890506342984736 ] } },
{ "type": "Feature", "properties": { "census_tract": "27053025802" }, "geometry": { "type": "Point", "coordinates": [ 474803.558080031652935, 4960740.396902053616941 ] } },
{ "type": "Feature", "properties": { "census_tract": "27053021100" }, "geometry": { "type": "Point", "coordinates": [ 472168.400990359310526, 4986356.165544404648244 ] } },
{ "type": "Feature", "properties": { "census_tract": "27053026807" }, "geometry": { "type": "Point", "coordinates": [ 468625.035015776520595, 4990970.548280798830092 ] } },
{ "type": "Feature", "properties": { "census_tract": "27053027300" }, "geometry": { "type": "Point", "coordinates": [ 458596.731434512534179, 4980079.390290810726583 ] } },
{ "type": "Feature", "properties": { "census_tract": "27053011703" }, "geometry": { "type": "Point", "coordinates": [ 479538.954826626635622, 4972527.234785665757954 ] } },
{ "type": "Feature", "properties": { "census_tract": "27053111100" }, "geometry": { "type": "Point", "coordinates": [ 482109.975282108527608, 4973872.646829539909959 ] } },
{ "type": "Feature", "properties": { "census_tract": "27053012001" }, "geometry": { "type": "Point", "coordinates": [ 476205.967472789343446, 4972029.634854658506811 ] } },
{ "type": "Feature", "properties": { "census_tract": "27053012003" }, "geometry": { "type": "Point", "coordinates": [ 477970.171213134133723, 4971585.372355535626411 ] } },
{ "type": "Feature", "properties": { "census_tract": "27053012101" }, "geometry": { "type": "Point", "coordinates": [ 481688.636572193936445, 4972298.727744559757411 ] } },
{ "type": "Feature", "properties": { "census_tract": "27053110800" }, "geometry": { "type": "Point", "coordinates": [ 478294.78290596784791, 4973755.443923937156796 ] } },
{ "type": "Feature", "properties": { "census_tract": "27053107600" }, "geometry": { "type": "Point", "coordinates": [ 483647.719631098560058, 4976587.25166227389127 ] } },
{ "type": "Feature", "properties": { "census_tract": "27053100700" }, "geometry": { "type": "Point", "coordinates": [ 474940.009144719573669, 4985017.294140197336674 ] } },
{ "type": "Feature", "properties": { "census_tract": "27053109000" }, "geometry": { "type": "Point", "coordinates": [ 483342.876082477800082, 4976049.34750606212765 ] } },
{ "type": "Feature", "properties": { "census_tract": "27053110900" }, "geometry": { "type": "Point", "coordinates": [ 479108.893736949714366, 4974238.358782498165965 ] } },
{ "type": "Feature", "properties": { "census_tract": "27053108700" }, "geometry": { "type": "Point", "coordinates": [ 481247.04843498946866, 4975737.467487072572112 ] } },
{ "type": "Feature", "properties": { "census_tract": "27053011000" }, "geometry": { "type": "Point", "coordinates": [ 479921.579103038529865, 4974433.640440405346453 ] } },
{ "type": "Feature", "properties": { "census_tract": "27053102000" }, "geometry": { "type": "Point", "coordinates": [ 475275.603886311058886, 4983081.828218962065876 ] } },
{ "type": "Feature", "properties": { "census_tract": "27053108900" }, "geometry": { "type": "Point", "coordinates": [ 482440.824372773291543, 4976899.730442295782268 ] } },
{ "type": "Feature", "properties": { "census_tract": "27053101600" }, "geometry": { "type": "Point", "coordinates": [ 477572.508895061211661, 4984335.212036437354982 ] } },
{ "type": "Feature", "properties": { "census_tract": "27053009600" }, "geometry": { "type": "Point", "coordinates": [ 479516.213381943700369, 4975638.160591299645603 ] } },
{ "type": "Feature", "properties": { "census_tract": "27053101200" }, "geometry": { "type": "Point", "coordinates": [ 482213.395351050479803, 4984174.553898548707366 ] } },
{ "type": "Feature", "properties": { "census_tract": "27053111300" }, "geometry": { "type": "Point", "coordinates": [ 475917.90145597042283, 4972688.586105387657881 ] } },
{ "type": "Feature", "properties": { "census_tract": "27053000102" }, "geometry": { "type": "Point", "coordinates": [ 476614.012124343717005, 4987530.486966667696834 ] } },
{ "type": "Feature", "properties": { "census_tract": "27053126000" }, "geometry": { "type": "Point", "coordinates": [ 479015.1130436839303, 4978276.151470152661204 ] } },
{ "type": "Feature", "properties": { "census_tract": "27053110500" }, "geometry": { "type": "Point", "coordinates": [ 483191.557149209431373, 4974014.232691936194897 ] } },
{ "type": "Feature", "properties": { "census_tract": "27053100900" }, "geometry": { "type": "Point", "coordinates": [ 477277.627309291739948, 4985008.154643780551851 ] } },
{ "type": "Feature", "properties": { "census_tract": "27053111600" }, "geometry": { "type": "Point", "coordinates": [ 478899.14291198347928, 4973408.016312154009938 ] } },
{ "type": "Feature", "properties": { "census_tract": "27053111400" }, "geometry": { "type": "Point", "coordinates": [ 476162.545285321364645, 4972100.631933409720659 ] } },
{ "type": "Feature", "properties": { "census_tract": "27053011998" }, "geometry": { "type": "Point", "coordinates": [ 482784.024257712764665, 4973245.195966340601444 ] } },
{ "type": "Feature", "properties": { "census_tract": "27053002700" }, "geometry": { "type": "Point", "coordinates": [ 474926.675723511260003, 4982295.125631529837847 ] } },
{ "type": "Feature", "properties": { "census_tract": "27053105100" }, "geometry": { "type": "Point", "coordinates": [ 475056.752288937103003, 4980509.123700498603284 ] } },
{ "type": "Feature", "properties": { "census_tract": "27053111500" }, "geometry": { "type": "Point", "coordinates": [ 477513.521375069627538, 4972141.930955706164241 ] } },
{ "type": "Feature", "properties": { "census_tract": "27053100200" }, "geometry": { "type": "Point", "coordinates": [ 474882.00361278699711, 4987264.367095100693405 ] } },
{ "type": "Feature", "properties": { "census_tract": "27053107500" }, "geometry": { "type": "Point", "coordinates": [ 482904.621075213246513, 4978009.377063385210931 ] } },
{ "type": "Feature", "properties": { "census_tract": "27053110000" }, "geometry": { "type": "Point", "coordinates": [ 478755.028324338200036, 4974977.118969825096428 ] } },
{ "type": "Feature", "properties": { "census_tract": "27053000101" }, "geometry": { "type": "Point", "coordinates": [ 475016.044697033416014, 4987994.686237801797688 ] } },
{ "type": "Feature", "properties": { "census_tract": "27053110100" }, "geometry": { "type": "Point", "coordinates": [ 480410.159155379573349, 4974969.414499255828559 ] } },
{ "type": "Feature", "properties": { "census_tract": "27053109400" }, "geometry": { "type": "Point", "coordinates": [ 478757.892982787045185, 4975736.205038501881063 ] } },
{ "type": "Feature", "properties": { "census_tract": "27053110200" }, "geometry": { "type": "Point", "coordinates": [ 481109.281706569483504, 4974717.639096136204898 ] } },
{ "type": "Feature", "properties": { "census_tract": "27053109800" }, "geometry": { "type": "Point", "coordinates": [ 474055.19905472768005, 4973938.381515095941722 ] } },
{ "type": "Feature", "properties": { "census_tract": "27053111200" }, "geometry": { "type": "Point", "coordinates": [ 474096.794734105409589, 4973805.392430568113923 ] } },
{ "type": "Feature", "properties": { "census_tract": "27053110400" }, "geometry": { "type": "Point", "coordinates": [ 482470.905820001731627, 4975307.109846012666821 ] } },
{ "type": "Feature", "properties": { "census_tract": "27053000603" }, "geometry": { "type": "Point", "coordinates": [ 481759.105228476691991, 4986071.91509419400245 ] } },
{ "type": "Feature", "properties": { "census_tract": "27053000601" }, "geometry": { "type": "Point", "coordinates": [ 481192.559226066165138, 4986595.908839404582977 ] } },
{ "type": "Feature", "properties": { "census_tract": "27053108800" }, "geometry": { "type": "Point", "coordinates": [ 482383.245665784575976, 4977207.932211360894144 ] } },
{ "type": "Feature", "properties": { "census_tract": "27053024802" }, "geometry": { "type": "Point", "coordinates": [ 478348.197470680810511, 4968066.867978553287685 ] } },
{ "type": "Feature", "properties": { "census_tract": "27053026702" }, "geometry": { "type": "Point", "coordinates": [ 468839.53975009691203, 4996013.375226683914661 ] } },
{ "type": "Feature", "properties": { "census_tract": "27053027002" }, "geometry": { "type": "Point", "coordinates": [ 448837.738531387411058, 4984379.503087878227234 ] } },
{ "type": "Feature", "properties": { "census_tract": "27053026507" }, "geometry": { "type": "Point", "coordinates": [ 465307.203729690983891, 4980713.444715796038508 ] } },
{ "type": "Feature", "properties": { "census_tract": "27053026609" }, "geometry": { "type": "Point", "coordinates": [ 462477.397006852785125, 4981314.701514167711139 ] } },
{ "type": "Feature", "properties": { "census_tract": "27053026610" }, "geometry": { "type": "Point", "coordinates": [ 460961.766281523392536, 4982140.806706896051764 ] } },
{ "type": "Feature", "properties": { "census_tract": "27053020500" }, "geometry": { "type": "Point", "coordinates": [ 475967.738226183806546, 4988763.407078531570733 ] } },
{ "type": "Feature", "properties": { "census_tract": "27053026207" }, "geometry": { "type": "Point", "coordinates": [ 460135.364899667329155, 4972392.451814683154225 ] } },
{ "type": "Feature", "properties": { "census_tract": "27053026404" }, "geometry": { "type": "Point", "coordinates": [ 464286.173446048051119, 4977265.360383759252727 ] } },
{ "type": "Feature", "properties": { "census_tract": "27053020600" }, "geometry": { "type": "Point", "coordinates": [ 477320.838321538583841, 4990162.695482985116541 ] } },
{ "type": "Feature", "properties": { "census_tract": "27053026201" }, "geometry": { "type": "Point", "coordinates": [ 459382.225189771794248, 4974301.002797462977469 ] } },
{ "type": "Feature", "properties": { "census_tract": "27053026202" }, "geometry": { "type": "Point", "coordinates": [ 463962.828993669012561, 4974632.565657283179462 ] } },
{ "type": "Feature", "properties": { "census_tract": "27053027504" }, "geometry": { "type": "Point", "coordinates": [ 457005.705808972707018, 4973259.948318313807249 ] } },
{ "type": "Feature", "properties": { "census_tract": "27053027701" }, "geometry": { "type": "Point", "coordinates": [ 447999.693668637715746, 4978477.712743886746466 ] } },
{ "type": "Feature", "properties": { "census_tract": "27053027501" }, "geometry": { "type": "Point", "coordinates": [ 456673.098674363282043, 4973632.031492085196078 ] } },
{ "type": "Feature", "properties": { "census_tract": "27053026403" }, "geometry": { "type": "Point", "coordinates": [ 466995.673569930659141, 4979860.906955046579242 ] } },
{ "type": "Feature", "properties": { "census_tract": "27053027204" }, "geometry": { "type": "Point", "coordinates": [ 450738.798186497937422, 4979723.66610055975616 ] } },
{ "type": "Feature", "properties": { "census_tract": "27053020202" }, "geometry": { "type": "Point", "coordinates": [ 477276.085376224538777, 4992508.429061399772763 ] } },
{ "type": "Feature", "properties": { "census_tract": "27053026713" }, "geometry": { "type": "Point", "coordinates": [ 467208.784268142073415, 4990862.702292766422033 ] } },
{ "type": "Feature", "properties": { "census_tract": "27053026505" }, "geometry": { "type": "Point", "coordinates": [ 466134.44216697558295, 4982842.845376760698855 ] } },
{ "type": "Feature", "properties": { "census_tract": "27053027203" }, "geometry": { "type": "Point", "coordinates": [ 452827.818572463234887, 4976403.890531702898443 ] } },
{ "type": "Feature", "properties": { "census_tract": "27053109300" }, "geometry": { "type": "Point", "coordinates": [ 478236.174267821421381, 4976101.818847672082484 ] } },
{ "type": "Feature", "properties": { "census_tract": "27053020302" }, "geometry": { "type": "Point", "coordinates": [ 473587.884574929950759, 4991466.57641427218914 ] } },
{ "type": "Feature", "properties": { "census_tract": "27053020304" }, "geometry": { "type": "Point", "coordinates": [ 474034.832086560549214, 4991153.863788827322423 ] } },
{ "type": "Feature", "properties": { "census_tract": "27053025301" }, "geometry": { "type": "Point", "coordinates": [ 480180.211132627446204, 4964558.349449248053133 ] } },
{ "type": "Feature", "properties": { "census_tract": "27053026906" }, "geometry": { "type": "Point", "coordinates": [ 471768.67975985724479, 5002300.46378371398896 ] } },
{ "type": "Feature", "properties": { "census_tract": "27053023201" }, "geometry": { "type": "Point", "coordinates": [ 466827.310390345344786, 4976966.749133522622287 ] } },
{ "type": "Feature", "properties": { "census_tract": "27053022301" }, "geometry": { "type": "Point", "coordinates": [ 469389.373950627516024, 4977388.000795075669885 ] } },
{ "type": "Feature", "properties": { "census_tract": "27053109700" }, "geometry": { "type": "Point", "coordinates": [ 480411.140362269361503, 4975965.110258512198925 ] } },
{ "type": "Feature", "properties": { "census_tract": "27053020101" }, "geometry": { "type": "Point", "coordinates": [ 482953.596868185035419, 4985727.81964685022831 ] } },
{ "type": "Feature", "properties": { "census_tract": "27053023300" }, "geometry": { "type": "Point", "coordinates": [ 466673.3629389712587, 4974295.787600723095238 ] } },
{ "type": "Feature", "properties": { "census_tract": "27053026206" }, "geometry": { "type": "Point", "coordinates": [ 462937.619130184641108, 4972820.586017256602645 ] } },
{ "type": "Feature", "properties": { "census_tract": "27053108000" }, "geometry": { "type": "Point", "coordinates": [ 476286.672673778783064, 4976246.956015260890126 ] } },
{ "type": "Feature", "properties": { "census_tract": "27053008100" }, "geometry": { "type": "Point", "coordinates": [ 477042.201469898805954, 4977152.269362908788025 ] } },
{ "type": "Feature", "properties": { "census_tract": "27053021001" }, "geometry": { "type": "Point", "coordinates": [ 473128.625036149343941, 4985265.103969745337963 ] } },
{ "type": "Feature", "properties": { "census_tract": "27053026516" }, "geometry": { "type": "Point", "coordinates": [ 467783.476535127963871, 4982478.080354688689113 ] } },
{ "type": "Feature", "properties": { "census_tract": "27053026026" }, "geometry": { "type": "Point", "coordinates": [ 461637.946614239306655, 4965045.109137536026537 ] } },
{ "type": "Feature", "properties": { "census_tract": "27053023402" }, "geometry": { "type": "Point", "coordinates": [ 469776.934009991819039, 4974292.313187995925546 ] } },
{ "type": "Feature", "properties": { "census_tract": "27053026815" }, "geometry": { "type": "Point", "coordinates": [ 476945.42228110821452, 4994966.976689382456243 ] } },
{ "type": "Feature", "properties": { "census_tract": "27053009500" }, "geometry": { "type": "Point", "coordinates": [ 478960.343882553570438, 4975188.973983247764409 ] } },
{ "type": "Feature", "properties": { "census_tract": "27053003200" }, "geometry": { "type": "Point", "coordinates": [ 475427.499116413702723, 4981983.180477906949818 ] } },
{ "type": "Feature", "properties": { "census_tract": "27053020801" }, "geometry": { "type": "Point", "coordinates": [ 471390.749126563547179, 4989217.153954887762666 ] } },
{ "type": "Feature", "properties": { "census_tract": "27053020400" }, "geometry": { "type": "Point", "coordinates": [ 474169.111089202924632, 4988399.508297096006572 ] } },
{ "type": "Feature", "properties": { "census_tract": "27053026101" }, "geometry": { "type": "Point", "coordinates": [ 464022.442797327006701, 4976184.2763198800385 ] } },
{ "type": "Feature", "properties": { "census_tract": "27053025205" }, "geometry": { "type": "Point", "coordinates": [ 478870.405364082835149, 4966065.219377829693258 ] } },
{ "type": "Feature", "properties": { "census_tract": "27053023903" }, "geometry": { "type": "Point", "coordinates": [ 470437.918892213376239, 4969241.20055122487247 ] } },
{ "type": "Feature", "properties": { "census_tract": "27053109200" }, "geometry": { "type": "Point", "coordinates": [ 476729.959947534953244, 4976154.363638209179044 ] } },
{ "type": "Feature", "properties": { "census_tract": "27053010700" }, "geometry": { "type": "Point", "coordinates": [ 477115.987601162341889, 4974426.285867836326361 ] } },
{ "type": "Feature", "properties": { "census_tract": "27053109900" }, "geometry": { "type": "Point", "coordinates": [ 477020.261936355906073, 4974956.981678686104715 ] } },
{ "type": "Feature", "properties": { "census_tract": "27053025100" }, "geometry": { "type": "Point", "coordinates": [ 480886.132986888464075, 4965463.766866421326995 ] } },
{ "type": "Feature", "properties": { "census_tract": "27053026302" }, "geometry": { "type": "Point", "coordinates": [ 461132.156408747890964, 4976263.95290572475642 ] } },
{ "type": "Feature", "properties": { "census_tract": "27053022102" }, "geometry": { "type": "Point", "coordinates": [ 470100.365106838871725, 4979533.236564058810472 ] } },
{ "type": "Feature", "properties": { "census_tract": "27053026007" }, "geometry": { "type": "Point", "coordinates": [ 466771.296313486760482, 4969055.486604216508567 ] } },
{ "type": "Feature", "properties": { "census_tract": "27053105600" }, "geometry": { "type": "Point", "coordinates": [ 477847.855652336671483, 4979222.010103220120072 ] } }
]
}
