{
"type": "FeatureCollection",
"name": "ramsey_tract_geometries",
"crs": { "type": "name", "properties": { "name": "urn:ogc:def:crs:EPSG::26915" } },
"features": [
{ "type": "Feature", "properties": { "census_tract": "27123036400" }, "geometry": { "type": "MultiPolygon", "coordinates": [ [ [ [ 486608.833273017778993, 4974763.556993749924004 ], [ 486590.745763025654014, 4974763.692028726451099 ], [ 486590.816182987764478, 4974799.899956304579973 ], [ 486608.906193188682664, 4974799.762221306562424 ], [ 486608.833273017778993, 4974763.556993749924004 ] ] ] ] } },
{ "type": "Feature", "properties": { "census_tract": "27123040804" }, "geometry": { "type": "MultiPolygon", "coordinates": [ [ [ [ 487608.340559454460163, 4988221.605555235408247 ], [ 487608.528620984056033, 4988197.233093713410199 ], [ 487608.622651741316076, 4988185.046812959015369 ], [ 487547.692866050056182, 4988184.395135790109634 ], [ 487547.594033929286525, 4988197.189515626057982 ], [ 487547.405872733157594, 4988221.562177200801671 ], [ 487608.340559454460163, 4988221.605555235408247 ] ] ] ] } },
{ "type": "Feature", "properties": { "census_tract": "27123041002" }, "geometry": { "type": "MultiPolygon", "coordinates": [ [ [ [ 482702.989307933370583, 4994237.289464130066335 ], [ 482637.542325028858613, 4994236.1702915225178 ], [ 482637.226982196327299, 4994266.923449684865773 ], [ 482636.967346945311874, 4994292.239315247163177 ], [ 482702.069230377033819, 4994293.590086459182203 ], [ 482752.282486045151018, 4994294.713618393987417 ], [ 482752.538421431498136, 4994269.757252478040755 ], [ 482752.861966188589577, 4994238.201495568268001 ], [ 482702.989307933370583, 4994237.289464130066335 ] ] ] ] } },
{ "type": "Feature", "properties": { "census_tract": "27123030300" }, "geometry": { "type": "MultiPolygon", "coordinates": [ [ [ [ 489614.951218190137297, 4981802.507596557028592 ], [ 489614.222083586559165, 4981761.404269721359015 ], [ 489599.55242282024119, 4981761.608122542500496 ], [ 489599.991257983201649, 4981802.720348476432264 ], [ 489614.951218190137297, 4981802.507596557028592 ] ] ] ] } },
{ "type": "Feature", "properties": { "census_tract": "27123034702" }, "geometry": { "type": "MultiPolygon", "coordinates": [ [ [ [ 499049.687061711214483, 4978396.93381068482995 ], [ 499034.742318864737172, 4978396.990060031414032 ], [ 499034.455882756272331, 4978438.117763193324208 ], [ 499049.400325810827781, 4978438.061213822104037 ], [ 499049.687061711214483, 4978396.93381068482995 ] ] ] ] } },
{ "type": "Feature", "properties": { "census_tract": "27123041900" }, "geometry": { "type": "MultiPolygon", "coordinates": [ [ [ [ 486983.572983461199328, 4982109.770340078510344 ], [ 486968.340223962150048, 4982109.642991102300584 ], [ 486968.472791282227263, 4982157.664926886558533 ], [ 486983.704750649572816, 4982157.869275877252221 ], [ 486983.572983461199328, 4982109.770340078510344 ] ] ] ] } },
{ "type": "Feature", "properties": { "census_tract": "27123030201" }, "geometry": { "type": "MultiPolygon", "coordinates": [ [ [ [ 486898.03810654085828, 4981492.809509078040719 ], [ 486936.556496128381696, 4981493.182134210132062 ], [ 486936.417655615019612, 4981480.993024775758386 ], [ 486897.905766158539336, 4981480.621799625456333 ], [ 486898.03810654085828, 4981492.809509078040719 ] ] ] ] } },
{ "type": "Feature", "properties": { "census_tract": "27123043001" }, "geometry": { "type": "MultiPolygon", "coordinates": [ [ [ [ 484668.271413642156404, 4975477.468115273863077 ], [ 484614.493073680845555, 4975476.965723058208823 ], [ 484614.559952853014693, 4975480.623426442965865 ], [ 484614.935709915414918, 4975490.538150570355356 ], [ 484615.53713706554845, 4975500.441746975295246 ], [ 484668.306983384187333, 4975500.743335349485278 ], [ 484668.274893181456719, 4975481.125218412838876 ], [ 484668.271413642156404, 4975477.468115273863077 ] ] ] ] } },
{ "type": "Feature", "properties": { "census_tract": "27123040704" }, "geometry": { "type": "MultiPolygon", "coordinates": [ [ [ [ 491501.909987105522305, 4987266.957480492070317 ], [ 491529.32979684160091, 4987266.9584617074579 ], [ 491529.324661193822976, 4987189.656095652841032 ], [ 491501.905636161973234, 4987194.000206828117371 ], [ 491501.909987105522305, 4987266.957480492070317 ] ] ] ] } },
{ "type": "Feature", "properties": { "census_tract": "27123037601" }, "geometry": { "type": "MultiPolygon", "coordinates": [ [ [ [ 485397.564244461827911, 4971905.126092975027859 ], [ 485360.08156704279827, 4971905.184052263386548 ], [ 485360.088402267603669, 4971917.251462173648179 ], [ 485360.095535033149645, 4971929.775772469118237 ], [ 485397.606912435381673, 4971929.747313260100782 ], [ 485397.585179677000269, 4971917.20820292737335 ], [ 485397.564244461827911, 4971905.126092975027859 ] ] ] ] } },
{ "type": "Feature", "properties": { "census_tract": "27123040402" }, "geometry": { "type": "MultiPolygon", "coordinates": [ [ [ [ 498130.495445850945543, 4988518.562152297236025 ], [ 498130.619928806787357, 4988521.965645734220743 ], [ 498137.012906148971524, 4988521.92656435072422 ], [ 498137.043258921301458, 4988490.583528144285083 ], [ 498137.078274761908688, 4988466.807776562869549 ], [ 498137.11369153187843, 4988442.840925378724933 ], [ 498137.149710951722227, 4988418.331875297240913 ], [ 498137.183722975198179, 4988395.340322120115161 ], [ 498137.140259834413882, 4988367.313178957439959 ], [ 498137.09470314119244, 4988337.966938469558954 ], [ 498087.067380426509771, 4988337.853893229737878 ], [ 498035.831061864795629, 4988337.763744425959885 ], [ 498035.800224991457071, 4988365.975687123835087 ], [ 498035.773506752797402, 4988390.348937630653381 ], [ 498035.746888506342657, 4988414.722188125364482 ], [ 498035.720170265005436, 4988439.095438624732196 ], [ 498036.147750740870833, 4988463.39909057598561 ], [ 498036.135590441641398, 4988496.424823578447104 ], [ 498036.125965655315667, 4988522.132771415635943 ], [ 498086.503885763639119, 4988522.107517543248832 ], [ 498127.42713962844573, 4988522.087036237120628 ], [ 498127.425456232740544, 4988518.68124315328896 ], [ 498130.495445850945543, 4988518.562152297236025 ] ] ] ] } },
{ "type": "Feature", "properties": { "census_tract": "27123041700" }, "geometry": { "type": "MultiPolygon", "coordinates": [ [ [ [ 488701.210739531961735, 4983429.029645452275872 ], [ 488674.613202868669759, 4983429.589861120097339 ], [ 488674.564724168682005, 4983493.569758281111717 ], [ 488701.166060441872105, 4983493.009442541748285 ], [ 488701.210739531961735, 4983429.029645452275872 ] ] ] ] } },
{ "type": "Feature", "properties": { "census_tract": "27123042402" }, "geometry": { "type": "MultiPolygon", "coordinates": [ [ [ [ 497798.578013091930188, 4982402.765729357488453 ], [ 497798.561733042297419, 4982387.532026794739068 ], [ 497708.421159678662661, 4982388.26453996822238 ], [ 497708.435839287412819, 4982403.498242597095668 ], [ 497798.578013091930188, 4982402.765729357488453 ] ] ] ] } },
{ "type": "Feature", "properties": { "census_tract": "27123040301" }, "geometry": { "type": "MultiPolygon", "coordinates": [ [ [ [ 499223.790016753016971, 4990145.378634973429143 ], [ 499204.582391646225005, 4990145.501880465075374 ], [ 499203.500857984588947, 4990145.63286845292896 ], [ 499202.453424560371786, 4990145.932463486678898 ], [ 499201.466205956647173, 4990146.393196056596935 ], [ 499200.563815503555816, 4990147.003579189069569 ], [ 499199.768751577124931, 4990147.748394826427102 ], [ 499199.10083671589382, 4990148.609073223546147 ], [ 499198.576723344856873, 4990149.564155964180827 ], [ 499198.209478667879011, 4990150.589830950833857 ], [ 499198.008258813410066, 4990151.660526063293219 ], [ 499197.978080588392913, 4990152.749546724371612 ], [ 499197.779774120543152, 4990193.315661756321788 ], [ 499223.532673978188541, 4990193.042235009372234 ], [ 499223.790016753016971, 4990145.378634973429143 ] ] ] ] } },
{ "type": "Feature", "properties": { "census_tract": "27123036600" }, "geometry": { "type": "MultiPolygon", "coordinates": [ [ [ [ 487797.379465043602977, 4973548.989233059808612 ], [ 487782.144146924372762, 4973549.101877330802381 ], [ 487782.232271658896934, 4973587.310404064133763 ], [ 487797.467489942151587, 4973587.203559765592217 ], [ 487812.702608228370082, 4973587.096715460531414 ], [ 487812.614683162304573, 4973548.876488782465458 ], [ 487797.379465043602977, 4973548.989233059808612 ] ] ] ] } },
{ "type": "Feature", "properties": { "census_tract": "27123037500" }, "geometry": { "type": "MultiPolygon", "coordinates": [ [ [ [ 485838.782951054046862, 4973262.556227842345834 ], [ 485833.603679489460774, 4973262.569608783349395 ], [ 485833.702491918578744, 4973298.468837689608335 ], [ 485838.882063058495987, 4973298.54825681168586 ], [ 485849.544805105659179, 4973298.431395951658487 ], [ 485849.445892509829719, 4973262.528567083179951 ], [ 485838.782951054046862, 4973262.556227842345834 ] ] ] ] } },
{ "type": "Feature", "properties": { "census_tract": "27123042401" }, "geometry": { "type": "MultiPolygon", "coordinates": [ [ [ [ 498366.702944496879354, 4985366.433376637287438 ], [ 498397.170956036134157, 4985366.600169011391699 ], [ 498399.81900421489263, 4985274.349165664054453 ], [ 498368.940793848596513, 4985274.056772177107632 ], [ 498366.702944496879354, 4985366.433376637287438 ] ] ] ] } },
{ "type": "Feature", "properties": { "census_tract": "27123031802" }, "geometry": { "type": "MultiPolygon", "coordinates": [ [ [ [ 498718.239484300545882, 4979236.523585258983076 ], [ 498701.220769537962042, 4979212.07862541358918 ], [ 498684.359527128050104, 4979214.496369261294603 ], [ 498688.356807050760835, 4979220.240283318795264 ], [ 498697.034563516499475, 4979232.709313843399286 ], [ 498705.79251972201746, 4979245.227944624610245 ], [ 498718.239484300545882, 4979236.523585258983076 ] ] ] ] } },
{ "type": "Feature", "properties": { "census_tract": "27123041800" }, "geometry": { "type": "MultiPolygon", "coordinates": [ [ [ [ 487313.056432722019963, 4983305.971780717372894 ], [ 487289.69058984023286, 4983305.658607763238251 ], [ 487289.682888329669368, 4983346.450444797985256 ], [ 487313.048731011454947, 4983346.75851771235466 ], [ 487313.056432722019963, 4983305.971780717372894 ] ] ] ] } },
{ "type": "Feature", "properties": { "census_tract": "27123041105" }, "geometry": { "type": "MultiPolygon", "coordinates": [ [ [ [ 482728.84317601431394, 4993148.856088520027697 ], [ 482761.787923889409285, 4993149.700876622460783 ], [ 482761.761495741957333, 4993100.954341817647219 ], [ 482728.816647511790507, 4993100.109453650191426 ], [ 482728.84317601431394, 4993148.856088520027697 ] ] ] ] } },
{ "type": "Feature", "properties": { "census_tract": "27123030400" }, "geometry": { "type": "MultiPolygon", "coordinates": [ [ [ [ 490294.302739256178029, 4981012.365243162959814 ], [ 490255.984552609850653, 4981012.52091820910573 ], [ 490256.15140626381617, 4981024.692525591701269 ], [ 490294.317693558055907, 4981024.525750012136996 ], [ 490294.302739256178029, 4981012.365243162959814 ] ] ] ] } },
{ "type": "Feature", "properties": { "census_tract": "27123041602" }, "geometry": { "type": "MultiPolygon", "coordinates": [ [ [ [ 491176.953518969356082, 4983391.702673044987023 ], [ 491123.337251938763075, 4983390.980606101453304 ], [ 491123.247175927273929, 4983413.830666624009609 ], [ 491176.863542689068709, 4983414.552333509549499 ], [ 491176.953518969356082, 4983391.702673044987023 ] ] ] ] } },
{ "type": "Feature", "properties": { "census_tract": "27123030702" }, "geometry": { "type": "MultiPolygon", "coordinates": [ [ [ [ 499081.690229670726694, 4981107.616885148920119 ], [ 499081.875194918655325, 4981146.10988952871412 ], [ 499094.397158179723192, 4981146.154930191114545 ], [ 499094.214492767234333, 4981107.661825841292739 ], [ 499081.690229670726694, 4981107.616885148920119 ] ] ] ] } },
{ "type": "Feature", "properties": { "census_tract": "27123040503" }, "geometry": { "type": "MultiPolygon", "coordinates": [ [ [ [ 497261.492031027504709, 4991620.051852595061064 ], [ 497287.102021920843981, 4991620.067623226903379 ], [ 497287.071964767354075, 4991589.601183876395226 ], [ 497287.045407634112053, 4991559.128044556826353 ], [ 497261.294216988957487, 4991559.114073468372226 ], [ 497261.392173999338411, 4991589.585313023999333 ], [ 497261.492031027504709, 4991620.051852595061064 ] ] ] ] } },
{ "type": "Feature", "properties": { "census_tract": "27123030602" }, "geometry": { "type": "MultiPolygon", "coordinates": [ [ [ [ 494095.306058850721456, 4981084.287164156325161 ], [ 494059.082466853549704, 4981083.820046074688435 ], [ 494059.037334252148867, 4981096.775750605389476 ], [ 494095.280426405195612, 4981097.219368717633188 ], [ 494095.306058850721456, 4981084.287164156325161 ] ] ] ] } },
{ "type": "Feature", "properties": { "census_tract": "27123036300" }, "geometry": { "type": "MultiPolygon", "coordinates": [ [ [ [ 485854.273983666789718, 4974104.789153410121799 ], [ 485854.272899520525243, 4974101.742950993590057 ], [ 485854.260683911736123, 4974066.316122818738222 ], [ 485840.990253021474928, 4974066.400674596428871 ], [ 485834.283287957834546, 4974066.443450220860541 ], [ 485834.300303310912568, 4974101.870878444053233 ], [ 485834.301787431410048, 4974104.917080872692168 ], [ 485838.884763623878825, 4974104.887697513215244 ], [ 485854.273983666789718, 4974104.789153410121799 ] ] ] ] } },
{ "type": "Feature", "properties": { "census_tract": "27123041301" }, "geometry": { "type": "MultiPolygon", "coordinates": [ [ [ [ 486781.757050940650515, 4982959.149626414291561 ], [ 486781.733861471351702, 4982957.011324746534228 ], [ 486781.625610755640082, 4982947.003816931508482 ], [ 486736.166814742784481, 4982947.541673487983644 ], [ 486736.214858443941921, 4982958.976182194426656 ], [ 486736.305393686867319, 4982980.432862159796059 ], [ 486736.011890615161974, 4982982.021058812737465 ], [ 486782.187642379722092, 4982998.946278898976743 ], [ 486782.079266428947449, 4982988.935993779450655 ], [ 486781.757050940650515, 4982959.149626414291561 ] ] ] ] } },
{ "type": "Feature", "properties": { "census_tract": "27123042302" }, "geometry": { "type": "MultiPolygon", "coordinates": [ [ [ [ 495648.059624100278597, 4982506.137511898763478 ], [ 495644.358230218931567, 4982507.670200563035905 ], [ 495651.142542497138493, 4982542.974931925535202 ], [ 495658.283098750922363, 4982541.373072174377739 ], [ 495665.335585094348062, 4982539.419630104675889 ], [ 495672.282701916177757, 4982537.119397468864918 ], [ 495659.445705245598219, 4982501.42224679980427 ], [ 495648.059624100278597, 4982506.137511898763478 ] ] ] ] } },
{ "type": "Feature", "properties": { "census_tract": "27123042700" }, "geometry": { "type": "MultiPolygon", "coordinates": [ [ [ [ 499895.885791894572321, 4983385.331214610487223 ], [ 499884.871619276353158, 4983385.231980328448117 ], [ 499884.65451562195085, 4983386.026077969931066 ], [ 499883.86248240841087, 4983387.968816176056862 ], [ 499882.748955193499569, 4983389.746907000429928 ], [ 499881.34694037825102, 4983391.307645511813462 ], [ 499879.697995512164198, 4983392.60476940125227 ], [ 499877.850997461180668, 4983393.599830193445086 ], [ 499875.86069366207812, 4983394.26333302538842 ], [ 499876.040605830261484, 4983429.821058498695493 ], [ 499876.045800381049048, 4983430.852856338024139 ], [ 499876.697998737334274, 4983430.86095835827291 ], [ 499877.433896884962451, 4983430.870160645805299 ], [ 499895.87065051717218, 4983431.100717874243855 ], [ 499895.870955647958908, 4983430.127719926647842 ], [ 499895.873189095349517, 4983423.785933339968324 ], [ 499895.876036037807353, 4983414.883552158251405 ], [ 499895.879593540448695, 4983403.97997519467026 ], [ 499895.880609610117972, 4983400.933081642724574 ], [ 499895.881117086682934, 4983399.515384630300105 ], [ 499895.885487514780834, 4983386.160612859763205 ], [ 499895.885791894572321, 4983385.331214610487223 ] ] ] ] } },
{ "type": "Feature", "properties": { "census_tract": "27123041400" }, "geometry": { "type": "MultiPolygon", "coordinates": [ [ [ [ 488297.842500138911419, 4984581.363650085404515 ], [ 488267.379183440003544, 4984580.913556817919016 ], [ 488266.849277155066375, 4984620.763491955585778 ], [ 488297.314194000151474, 4984621.059685421176255 ], [ 488297.842500138911419, 4984581.363650085404515 ] ] ] ] } },
{ "type": "Feature", "properties": { "census_tract": "27123042202" }, "geometry": { "type": "MultiPolygon", "coordinates": [ [ [ [ 494590.86218779993942, 4982873.319072850979865 ], [ 494573.027730266738217, 4982873.203016447834671 ], [ 494563.802852226130199, 4982873.14288726914674 ], [ 494564.682141437369864, 4982919.180705442093313 ], [ 494573.291821049526334, 4982919.24513265863061 ], [ 494578.221009372966364, 4982919.282048233784735 ], [ 494583.754696267889813, 4982919.32336573023349 ], [ 494591.126278810319491, 4982919.37858903221786 ], [ 494590.86218779993942, 4982873.319072850979865 ] ] ] ] } },
{ "type": "Feature", "properties": { "census_tract": "27123042602" }, "geometry": { "type": "MultiPolygon", "coordinates": [ [ [ [ 500556.12498857738683, 4985852.770541792735457 ], [ 500556.043307990010362, 4985868.11920815333724 ], [ 500555.961527376552112, 4985883.473274514079094 ], [ 500601.867569798370823, 4985883.537343318574131 ], [ 500601.918547098292038, 4985868.799375727772713 ], [ 500602.043029277701862, 4985853.141810111701488 ], [ 500556.12498857738683, 4985852.770541792735457 ] ] ] ] } },
{ "type": "Feature", "properties": { "census_tract": "27123041302" }, "geometry": { "type": "MultiPolygon", "coordinates": [ [ [ [ 486015.309118114120793, 4986318.732024594210088 ], [ 485951.696214774332475, 4986318.257733863778412 ], [ 485951.501858708274085, 4986344.15329487528652 ], [ 486014.918762292945758, 4986344.625584952533245 ], [ 486015.309118114120793, 4986318.732024594210088 ] ] ] ] } },
{ "type": "Feature", "properties": { "census_tract": "27123041500" }, "geometry": { "type": "MultiPolygon", "coordinates": [ [ [ [ 488826.608910572249442, 4986444.886778019368649 ], [ 488800.86529038642766, 4986444.949500655755401 ], [ 488797.392201105656568, 4986444.977190183475614 ], [ 488796.785654622362927, 4986497.646403559483588 ], [ 488800.258543815696612, 4986497.638013985008001 ], [ 488826.002663701830897, 4986497.575391289778054 ], [ 488826.608910572249442, 4986444.886778019368649 ] ] ] ] } },
{ "type": "Feature", "properties": { "census_tract": "27123036500" }, "geometry": { "type": "MultiPolygon", "coordinates": [ [ [ [ 487610.225722412578762, 4974424.652760874480009 ], [ 487610.20578864403069, 4974410.372050808742642 ], [ 487571.807584821537603, 4974410.526112015359104 ], [ 487571.887618130247574, 4974424.800522325560451 ], [ 487610.225722412578762, 4974424.652760874480009 ] ] ] ] } },
{ "type": "Feature", "properties": { "census_tract": "27123041200" }, "geometry": { "type": "MultiPolygon", "coordinates": [ [ [ [ 485049.197379761142656, 4989646.533817662857473 ], [ 485049.174976039445028, 4989648.453114835545421 ], [ 485049.032252415025141, 4989660.638596859760582 ], [ 485049.010848871199414, 4989662.466294156387448 ], [ 485087.398502941767219, 4989662.246404303237796 ], [ 485087.419606436160393, 4989660.448806960135698 ], [ 485087.562230160401668, 4989648.263324953615665 ], [ 485087.5846338760457, 4989646.354427776299417 ], [ 485049.197379761142656, 4989646.533817662857473 ] ] ] ] } },
{ "type": "Feature", "properties": { "census_tract": "27123040708" }, "geometry": { "type": "MultiPolygon", "coordinates": [ [ [ [ 489905.306199247774202, 4991697.109298356808722 ], [ 489904.775801670039073, 4991697.057296978309751 ], [ 489896.264238544856198, 4991696.879173751920462 ], [ 489891.378962725691963, 4991695.791762050241232 ], [ 489890.214968480169773, 4991695.532659261487424 ], [ 489890.058269242930692, 4991695.503058874979615 ], [ 489882.949903677508701, 4991694.160641453228891 ], [ 489878.724725705222227, 4991692.852231942117214 ], [ 489877.448932210099883, 4991692.503528998233378 ], [ 489874.813445653184317, 4991691.783222907222807 ], [ 489874.814125813893043, 4991698.294012115336955 ], [ 489874.819773525930941, 4991748.276729269884527 ], [ 489890.052808084990829, 4991748.353971199132502 ], [ 489905.28584263951052, 4991748.431413142941892 ], [ 489905.304486580658704, 4991701.257891464047134 ], [ 489905.306199247774202, 4991697.109298356808722 ] ] ] ] } },
{ "type": "Feature", "properties": { "census_tract": "27123041001" }, "geometry": { "type": "MultiPolygon", "coordinates": [ [ [ [ 483246.57029698160477, 4995119.437109945341945 ], [ 483246.36565841868287, 4995144.57117522880435 ], [ 483316.720202356227674, 4995146.287957120686769 ], [ 483316.726403543376364, 4995145.526358181610703 ], [ 483316.925141320738476, 4995121.153891927562654 ], [ 483246.57029698160477, 4995119.437109945341945 ] ] ] ] } },
{ "type": "Feature", "properties": { "census_tract": "27123040901" }, "geometry": { "type": "MultiPolygon", "coordinates": [ [ [ [ 483856.024885372724384, 4995501.92267572786659 ], [ 483855.731021784245968, 4995539.999222152866423 ], [ 483945.194864996301476, 4995539.751355108805001 ], [ 483945.480529367981944, 4995501.68140881601721 ], [ 483856.024885372724384, 4995501.92267572786659 ] ] ] ] } },
{ "type": "Feature", "properties": { "census_tract": "27123041601" }, "geometry": { "type": "MultiPolygon", "coordinates": [ [ [ [ 491620.546244443918113, 4986613.542666937224567 ], [ 491620.704938623588532, 4986586.026315221562982 ], [ 491550.636461486923508, 4986585.22510692384094 ], [ 491550.475466289673932, 4986613.16325799934566 ], [ 491620.546244443918113, 4986613.542666937224567 ] ] ] ] } },
{ "type": "Feature", "properties": { "census_tract": "27123040707" }, "geometry": { "type": "MultiPolygon", "coordinates": [ [ [ [ 489234.701900694868527, 4994922.674790741875768 ], [ 489231.665412312082481, 4994923.886980814859271 ], [ 489226.16684009245364, 4994923.752466637641191 ], [ 489221.293466480914503, 4994923.023255053907633 ], [ 489216.417491117783356, 4994922.904042475856841 ], [ 489216.053587839589454, 4994959.198782440274954 ], [ 489234.333096305199433, 4994959.312930109910667 ], [ 489234.701900694868527, 4994922.674790741875768 ] ] ] ] } },
{ "type": "Feature", "properties": { "census_tract": "27123035200" }, "geometry": { "type": "MultiPolygon", "coordinates": [ [ [ [ 486949.71289435372455, 4975913.009066765196621 ], [ 486949.393581094336696, 4975874.776937501505017 ], [ 486937.329036757873837, 4975874.86839484795928 ], [ 486937.629949951078743, 4975913.102224081754684 ], [ 486949.71289435372455, 4975913.009066765196621 ] ] ] ] } },
{ "type": "Feature", "properties": { "census_tract": "27123034701" }, "geometry": { "type": "MultiPolygon", "coordinates": [ [ [ [ 498078.41509430273436, 4978137.670678521506488 ], [ 498097.914318132621702, 4978137.583944900892675 ], [ 498098.298608248063829, 4978061.867934906855226 ], [ 498078.809484759345651, 4978062.033068496733904 ], [ 498078.41509430273436, 4978137.670678521506488 ] ] ] ] } },
{ "type": "Feature", "properties": { "census_tract": "27123042002" }, "geometry": { "type": "MultiPolygon", "coordinates": [ [ [ [ 483886.981525214388967, 4982994.610241446644068 ], [ 483848.304915470071137, 4982994.68081915192306 ], [ 483848.294094500888605, 4983006.824102248996496 ], [ 483886.972304141847417, 4983006.754524517804384 ], [ 483886.981525214388967, 4982994.610241446644068 ] ] ] ] } },
{ "type": "Feature", "properties": { "census_tract": "27123033500" }, "geometry": { "type": "MultiPolygon", "coordinates": [ [ [ [ 488657.118909444019664, 4977654.012329932302237 ], [ 488644.501660824636929, 4977654.003886478021741 ], [ 488644.584402957290877, 4977690.702210483141243 ], [ 488657.173351857287344, 4977690.705653810873628 ], [ 488657.118909444019664, 4977654.012329932302237 ] ] ] ] } },
{ "type": "Feature", "properties": { "census_tract": "27123032200" }, "geometry": { "type": "MultiPolygon", "coordinates": [ [ [ [ 487286.733159350173082, 4978652.386127026751637 ], [ 487286.808283578371629, 4978689.448653910309076 ], [ 487298.994037619500887, 4978689.54769529029727 ], [ 487298.917413274699356, 4978652.478868417441845 ], [ 487286.733159350173082, 4978652.386127026751637 ] ] ] ] } },
{ "type": "Feature", "properties": { "census_tract": "27123040805" }, "geometry": { "type": "MultiPolygon", "coordinates": [ [ [ [ 485977.524091196071822, 4987569.65755476243794 ], [ 485950.977280209190212, 4987569.640776385553181 ], [ 485950.820223211485427, 4987595.959336901083589 ], [ 486007.181933897256386, 4987595.99340324383229 ], [ 486007.198591694002971, 4987569.676342373713851 ], [ 485977.524091196071822, 4987569.65755476243794 ] ] ] ] } },
{ "type": "Feature", "properties": { "census_tract": "27123035100" }, "geometry": { "type": "MultiPolygon", "coordinates": [ [ [ [ 485640.074446990969591, 4975860.438788450323045 ], [ 485639.951447466621175, 4975822.523157472722232 ], [ 485626.383410321432166, 4975822.617609431967139 ], [ 485626.506209697283339, 4975860.529740447178483 ], [ 485640.074446990969591, 4975860.438788450323045 ] ] ] ] } },
{ "type": "Feature", "properties": { "census_tract": "27123040504" }, "geometry": { "type": "MultiPolygon", "coordinates": [ [ [ [ 497796.61191221041372, 4991962.050339166074991 ], [ 497794.093423087149858, 4991962.058532232418656 ], [ 497794.093222833820619, 4991962.111632128246129 ], [ 497793.877486698853318, 4992053.2486477419734 ], [ 497814.837497108848765, 4992052.902205850929022 ], [ 497814.982832913228776, 4991961.987189677543938 ], [ 497796.61191221041372, 4991962.050339166074991 ] ] ] ] } },
{ "type": "Feature", "properties": { "census_tract": "27123040606" }, "geometry": { "type": "MultiPolygon", "coordinates": [ [ [ [ 494984.40083543054061, 4987836.585414081811905 ], [ 495009.53564968513092, 4987836.529687916859984 ], [ 495009.219715659390204, 4987749.39405170083046 ], [ 494984.084900919173378, 4987749.449777767062187 ], [ 494984.40083543054061, 4987836.585414081811905 ] ] ] ] } },
{ "type": "Feature", "properties": { "census_tract": "27123042102" }, "geometry": { "type": "MultiPolygon", "coordinates": [ [ [ [ 494708.628008722385857, 4986616.337895171716809 ], [ 494731.77093611843884, 4986616.262964482419193 ], [ 494756.640858085884247, 4986616.182438956573606 ], [ 494756.940665817877743, 4986589.892989255487919 ], [ 494697.528252903488465, 4986589.835711725987494 ], [ 494697.009545174310915, 4986616.375560374930501 ], [ 494708.628008722385857, 4986616.337895171716809 ] ] ] ] } },
{ "type": "Feature", "properties": { "census_tract": "27123043002" }, "geometry": { "type": "MultiPolygon", "coordinates": [ [ [ [ 483837.306573791895062, 4978142.225655586458743 ], [ 483818.507347530219704, 4978108.107460372149944 ], [ 483815.821849632775411, 4978109.546452464535832 ], [ 483805.215056053071748, 4978115.547421550378203 ], [ 483824.813183658756316, 4978148.886718817986548 ], [ 483824.838383304711897, 4978148.929618936032057 ], [ 483825.707082933629863, 4978148.413321444764733 ], [ 483831.541278209886514, 4978145.324038634076715 ], [ 483833.901476401719265, 4978144.055645567364991 ], [ 483834.622875856177416, 4978143.667947696521878 ], [ 483837.306573791895062, 4978142.225655586458743 ] ] ] ] } },
{ "type": "Feature", "properties": { "census_tract": "27123042501" }, "geometry": { "type": "MultiPolygon", "coordinates": [ [ [ [ 500610.522456833161414, 4979581.006265815347433 ], [ 500610.364541742135771, 4979604.963665310293436 ], [ 500650.167275967891328, 4979605.442170072346926 ], [ 500650.176190983562265, 4979581.478770669549704 ], [ 500610.522456833161414, 4979581.006265815347433 ] ] ] ] } },
{ "type": "Feature", "properties": { "census_tract": "27123030202" }, "geometry": { "type": "MultiPolygon", "coordinates": [ [ [ [ 487865.24252673756564, 4981438.506706521846354 ], [ 487865.415470873354934, 4981450.688015467487276 ], [ 487905.034156077716034, 4981451.257344331592321 ], [ 487904.861111777659971, 4981439.078735411167145 ], [ 487865.24252673756564, 4981438.506706521846354 ] ] ] ] } },
{ "type": "Feature", "properties": { "census_tract": "27123041104" }, "geometry": { "type": "MultiPolygon", "coordinates": [ [ [ [ 482289.438249143771827, 4991423.668672261759639 ], [ 482289.977989961917046, 4991392.222815223038197 ], [ 482258.919221067219041, 4991391.525329566560686 ], [ 482258.282571900344919, 4991429.551077716052532 ], [ 482277.780089300649706, 4991430.087931322865188 ], [ 482279.22823943226831, 4991428.30509686190635 ], [ 482280.932903981010895, 4991426.765697138383985 ], [ 482282.853673600417096, 4991425.506223873235285 ], [ 482284.945016129990108, 4991424.556533116847277 ], [ 482287.157355936302338, 4991423.939137425273657 ], [ 482289.438249143771827, 4991423.668672261759639 ] ] ] ] } },
{ "type": "Feature", "properties": { "census_tract": "27123042001" }, "geometry": { "type": "MultiPolygon", "coordinates": [ [ [ [ 486808.150346224370878, 4981904.587124355137348 ], [ 486801.447664324077778, 4981904.567002760246396 ], [ 486788.042400518374052, 4981904.526759563013911 ], [ 486788.439312990638427, 4981942.60648924484849 ], [ 486801.844476960308384, 4981942.646532406099141 ], [ 486808.547158941684756, 4981942.666553996503353 ], [ 486808.150346224370878, 4981904.587124355137348 ] ] ] ] } },
{ "type": "Feature", "properties": { "census_tract": "27123035500" }, "geometry": { "type": "MultiPolygon", "coordinates": [ [ [ [ 491069.394201189861633, 4976938.360761264339089 ], [ 491071.515292168944143, 4976938.330468622967601 ], [ 491074.049181255162694, 4976938.334277436137199 ], [ 491074.0561833078973, 4976937.740377155132592 ], [ 491083.516442581312731, 4976937.749110062606633 ], [ 491083.552345557778608, 4976936.854609722271562 ], [ 491092.601806985796429, 4976936.751441143453121 ], [ 491092.631809518614318, 4976935.989240854047239 ], [ 491092.881430205190554, 4976929.764238500036299 ], [ 491069.373831903620157, 4976929.615956667810678 ], [ 491069.388908676279243, 4976936.229560147039592 ], [ 491069.394201189861633, 4976938.360761264339089 ] ] ] ] } },
{ "type": "Feature", "properties": { "census_tract": "27123033800" }, "geometry": { "type": "MultiPolygon", "coordinates": [ [ [ [ 489327.68737877527019, 4977408.811489035375416 ], [ 489318.531116686412133, 4977408.829857405275106 ], [ 489318.501217623183038, 4977433.182672162540257 ], [ 489327.659979771007784, 4977433.164503796957433 ], [ 489327.68737877527019, 4977408.811489035375416 ] ] ] ] } },
{ "type": "Feature", "properties": { "census_tract": "27123042101" }, "geometry": { "type": "MultiPolygon", "coordinates": [ [ [ [ 491762.544707918714266, 4985199.781456797383726 ], [ 491757.251922773080878, 4985199.825340545736253 ], [ 491755.229428445862141, 4985199.842234337702394 ], [ 491747.091051294410136, 4985199.909809365868568 ], [ 491739.161773544445168, 4985199.975685023702681 ], [ 491731.846494074095972, 4985200.036462574265897 ], [ 491723.797516662394628, 4985200.103337869048119 ], [ 491723.7183799232007, 4985210.767619041725993 ], [ 491723.726276220637374, 4985211.830317213200033 ], [ 491724.008544199925382, 4985249.689352127723396 ], [ 491731.330523572163656, 4985249.629174585454166 ], [ 491738.645802958286367, 4985249.569097025319934 ], [ 491746.570580625266302, 4985249.504121327772737 ], [ 491755.105256579932757, 4985249.43414750136435 ], [ 491762.420435962674674, 4985249.374069939367473 ], [ 491762.515267251466867, 4985211.511436250992119 ], [ 491762.544707918714266, 4985199.781456797383726 ] ] ] ] } },
{ "type": "Feature", "properties": { "census_tract": "27123031000" }, "geometry": { "type": "MultiPolygon", "coordinates": [ [ [ [ 494094.723603405349422, 4979953.977956581860781 ], [ 494082.864243177231401, 4979953.809217216446996 ], [ 494082.51244776538806, 4979992.146429831162095 ], [ 494094.974206268263515, 4979992.26807115226984 ], [ 494094.723603405349422, 4979953.977956581860781 ] ] ] ] } },
{ "type": "Feature", "properties": { "census_tract": "27123030900" }, "geometry": { "type": "MultiPolygon", "coordinates": [ [ [ [ 493589.869018653349485, 4979864.290048507973552 ], [ 493589.719365017779637, 4979847.176241404376924 ], [ 493555.996379177027848, 4979846.765729264356196 ], [ 493555.874733778706286, 4979863.785935452207923 ], [ 493589.869018653349485, 4979864.290048507973552 ] ] ] ] } },
{ "type": "Feature", "properties": { "census_tract": "27123033200" }, "geometry": { "type": "MultiPolygon", "coordinates": [ [ [ [ 484267.646586339687929, 4978649.739375778473914 ], [ 484227.360637622245122, 4978649.699838890694082 ], [ 484227.367950030602515, 4978664.976452383212745 ], [ 484227.375362710794434, 4978680.204365839250386 ], [ 484227.382675392495003, 4978695.432379296980798 ], [ 484227.38988807372516, 4978710.660292748361826 ], [ 484227.397200756298844, 4978725.888206195086241 ], [ 484227.404513446148485, 4978741.116119655780494 ], [ 484227.411826124181971, 4978756.344033105298877 ], [ 484227.419138815545011, 4978771.571946556679904 ], [ 484227.42635149427224, 4978786.799960011616349 ], [ 484267.710402016935404, 4978786.839496613480151 ], [ 484267.717314873123541, 4978802.072910034097731 ], [ 484308.000865601236001, 4978802.112446593120694 ], [ 484307.994352542504203, 4978786.87913319747895 ], [ 484307.98783949308563, 4978771.645719812251627 ], [ 484307.981326436041854, 4978756.412406417541206 ], [ 484307.974813378881663, 4978741.179093025624752 ], [ 484307.968200323346537, 4978725.945679632946849 ], [ 484307.961687266652007, 4978710.712366241961718 ], [ 484307.955174216302112, 4978695.47895286232233 ], [ 484307.948661159258336, 4978680.245639462023973 ], [ 484307.942048103548586, 4978665.012326075695455 ], [ 484307.93553505348973, 4978649.778912687674165 ], [ 484267.646586339687929, 4978649.739375778473914 ] ] ] ] } },
{ "type": "Feature", "properties": { "census_tract": "27123040102" }, "geometry": { "type": "MultiPolygon", "coordinates": [ [ [ [ 499825.458637678122614, 4994724.691174432635307 ], [ 499861.448070367681794, 4994722.669572787359357 ], [ 499862.024931528605521, 4994722.671287703327835 ], [ 499862.593447955616284, 4994722.573506444692612 ], [ 499863.136588211287744, 4994722.379158329218626 ], [ 499863.638081063050777, 4994722.094065569341183 ], [ 499864.082902964029927, 4994721.726768872700632 ], [ 499864.457728065957781, 4994721.288271618075669 ], [ 499864.751327495032456, 4994720.791710153222084 ], [ 499864.954905683174729, 4994720.251960297115147 ], [ 499865.062363915261813, 4994719.685191723518074 ], [ 499865.07048296550056, 4994719.108383477665484 ], [ 499864.979019630467519, 4994718.538815419189632 ], [ 499864.79071392363403, 4994717.993550469167531 ], [ 499864.511207058792934, 4994717.488923510536551 ], [ 499864.148872402671259, 4994717.040052001364529 ], [ 499863.714564669353422, 4994716.660383080132306 ], [ 499863.221294705930632, 4994716.361290737986565 ], [ 499856.198326986690518, 4994712.053385900333524 ], [ 499849.604577254154719, 4994707.113486599177122 ], [ 499843.496739302237984, 4994701.584066647104919 ], [ 499837.927329014404677, 4994695.512668594717979 ], [ 499834.274339854309801, 4994690.831677010282874 ], [ 499830.944034094165545, 4994685.915876745246351 ], [ 499827.951455439906567, 4994680.7874735603109 ], [ 499824.739444495004136, 4994674.20015656016767 ], [ 499822.081215367419645, 4994667.370543700642884 ], [ 499819.994851697119884, 4994660.345096097327769 ], [ 499818.494546766683925, 4994653.171607065945864 ], [ 499818.321790498506743, 4994652.615965889766812 ], [ 499818.057732602115721, 4994652.097453742288053 ], [ 499817.709949392126873, 4994651.630947756581008 ], [ 499817.288419449934736, 4994651.229832894168794 ], [ 499816.805237272463273, 4994650.90561789367348 ], [ 499816.274266286171041, 4994650.667605117894709 ], [ 499815.710741070681252, 4994650.522623599506915 ], [ 499815.130830258014612, 4994650.474833149462938 ], [ 499814.551172593026422, 4994650.525604967959225 ], [ 499813.98839957814198, 4994650.6734822941944 ], [ 499813.458658256568015, 4994650.914222273975611 ], [ 499812.977147912315559, 4994651.240917588584125 ], [ 499812.557684020081069, 4994651.644194742664695 ], [ 499808.23556669743266, 4994660.232963865622878 ], [ 499803.420496358419769, 4994668.555387855507433 ], [ 499798.128824587562121, 4994676.583204395137727 ], [ 499793.055552567006089, 4994683.427697413600981 ], [ 499787.635206161532551, 4994690.000748660415411 ], [ 499802.073851463559549, 4994705.937052825465798 ], [ 499808.276684973912779, 4994712.78325461782515 ], [ 499809.138613559654914, 4994725.607929822057486 ], [ 499825.458637678122614, 4994724.691174432635307 ] ] ] ] } },
{ "type": "Feature", "properties": { "census_tract": "27123041103" }, "geometry": { "type": "MultiPolygon", "coordinates": [ [ [ [ 482908.131691142858472, 4987292.198058149777353 ], [ 482889.851851349289063, 4987292.094604016281664 ], [ 482889.810796184756327, 4987328.728954581543803 ], [ 482908.090635816799477, 4987328.837608681060374 ], [ 482908.131691142858472, 4987292.198058149777353 ] ] ] ] } },
{ "type": "Feature", "properties": { "census_tract": "27123034900" }, "geometry": { "type": "MultiPolygon", "coordinates": [ [ [ [ 485471.318610788672231, 4976371.408406693488359 ], [ 485471.572552950994577, 4976325.736670378595591 ], [ 485456.501220456091687, 4976325.811517393216491 ], [ 485453.489733946975321, 4976325.826506807468832 ], [ 485453.186791736749001, 4976371.498442998155951 ], [ 485456.247178070596419, 4976371.483253750018775 ], [ 485471.318610788672231, 4976371.408406693488359 ] ] ] ] } }
]
}
